{
  "type": "FeatureCollection",
  "features": [
    {
      "type": "Feature",
      "properties": {
        "norad_id": 26766,
        "name": "INTELSAT 10 (IS-10)",
        "group": "intelsat",
        "lat": -7.326099611208262,
        "lon": 2.91133182420671,
        "alt_km": 36121.66794696857,
        "timestamp": "2025-12-02T07:10:08.776863+00:00",
        "meta_object_name": "INTELSAT 10 (IS-10)",
        "meta_object_id": "2001-019A",
        "meta_epoch": "2025-12-01T11:39:24.752160",
        "meta_mean_motion": 0.99077519,
        "meta_eccentricity": 0.00076044,
        "meta_inclination": 8.6009,
        "meta_ra_of_asc_node": 61.2665,
        "meta_arg_of_pericenter": 217.709,
        "meta_mean_anomaly": 153.5892,
        "meta_ephemeris_type": 0,
        "meta_classification_type": "U",
        "meta_norad_cat_id": 26766,
        "meta_element_set_no": 999,
        "meta_rev_at_epoch": 4362,
        "meta_bstar": 0,
        "meta_mean_motion_dot": -9.5e-07,
        "meta_mean_motion_ddot": 0,
        "tle_line1": "1 26766U 01019A   25335.48570315 -.00000095  00000+0  00000+0 0  9992",
        "tle_line2": "2 26766   8.6009  61.2665 0007604 217.7090 153.5892  0.99077519 43626"
      },
      "geometry": {
        "type": "Point",
        "coordinates": [
          2.91133182420671,
          -7.326099611208262
        ]
      }
    },
    {
      "type": "Feature",
      "properties": {
        "norad_id": 26900,
        "name": "INTELSAT 902 (IS-902)",
        "group": "intelsat",
        "lat": 4.582908238522061,
        "lon": 128.6246460388814,
        "alt_km": 35795.24380100262,
        "timestamp": "2025-12-02T07:10:08.776902+00:00",
        "meta_object_name": "INTELSAT 902 (IS-902)",
        "meta_object_id": "2001-039A",
        "meta_epoch": "2025-12-01T16:59:59.311104",
        "meta_mean_motion": 1.00270327,
        "meta_eccentricity": 0.000431,
        "meta_inclination": 5.6187,
        "meta_ra_of_asc_node": 74.2002,
        "meta_arg_of_pericenter": 175.119,
        "meta_mean_anomaly": 26.3816,
        "meta_ephemeris_type": 0,
        "meta_classification_type": "U",
        "meta_norad_cat_id": 26900,
        "meta_element_set_no": 999,
        "meta_rev_at_epoch": 8871,
        "meta_bstar": 0,
        "meta_mean_motion_dot": -2.63e-06,
        "meta_mean_motion_ddot": 0,
        "tle_line1": "1 26900U 01039A   25335.70832536 -.00000263  00000+0  00000+0 0  9992",
        "tle_line2": "2 26900   5.6187  74.2002 0004310 175.1190  26.3816  1.00270327 88715"
      },
      "geometry": {
        "type": "Point",
        "coordinates": [
          128.6246460388814,
          4.582908238522061
        ]
      }
    },
    {
      "type": "Feature",
      "properties": {
        "norad_id": 27380,
        "name": "INTELSAT 904 (IS-904)",
        "group": "intelsat",
        "lat": 6.230466849939638,
        "lon": 147.33436488772858,
        "alt_km": 35788.71385553671,
        "timestamp": "2025-12-02T07:10:08.776918+00:00",
        "meta_object_name": "INTELSAT 904 (IS-904)",
        "meta_object_id": "2002-007A",
        "meta_epoch": "2025-12-01T03:23:28.935168",
        "meta_mean_motion": 1.00269987,
        "meta_eccentricity": 0.0001425,
        "meta_inclination": 6.4235,
        "meta_ra_of_asc_node": 71.564,
        "meta_arg_of_pericenter": 194.1406,
        "meta_mean_anomaly": 183.9501,
        "meta_ephemeris_type": 0,
        "meta_classification_type": "U",
        "meta_norad_cat_id": 27380,
        "meta_element_set_no": 999,
        "meta_rev_at_epoch": 4978,
        "meta_bstar": 0,
        "meta_mean_motion_dot": -2.05e-06,
        "meta_mean_motion_ddot": 0,
        "tle_line1": "1 27380U 02007A   25335.14130712 -.00000205  00000+0  00000+0 0  9992",
        "tle_line2": "2 27380   6.4235  71.5640 0001425 194.1406 183.9501  1.00269987 49789"
      },
      "geometry": {
        "type": "Point",
        "coordinates": [
          147.33436488772858,
          6.230466849939638
        ]
      }
    },
    {
      "type": "Feature",
      "properties": {
        "norad_id": 27426,
        "name": "DIRECTV 5 (TEMPO 1)",
        "group": "intelsat",
        "lat": -0.6578486025823723,
        "lon": 68.83109025520244,
        "alt_km": 35801.21989359615,
        "timestamp": "2025-12-02T07:10:08.776932+00:00",
        "meta_object_name": "DIRECTV 5 (TEMPO 1)",
        "meta_object_id": "2002-023A",
        "meta_epoch": "2025-12-01T19:48:55.136160",
        "meta_mean_motion": 1.0027113,
        "meta_eccentricity": 0.000365,
        "meta_inclination": 4.3719,
        "meta_ra_of_asc_node": 77.7811,
        "meta_arg_of_pericenter": 186.9558,
        "meta_mean_anomaly": 353.3097,
        "meta_ephemeris_type": 0,
        "meta_classification_type": "U",
        "meta_norad_cat_id": 27426,
        "meta_element_set_no": 999,
        "meta_rev_at_epoch": 8614,
        "meta_bstar": 0,
        "meta_mean_motion_dot": -3.6e-07,
        "meta_mean_motion_ddot": 0,
        "tle_line1": "1 27426U 02023A   25335.82563815 -.00000036  00000+0  00000+0 0  9992",
        "tle_line2": "2 27426   4.3719  77.7811 0003650 186.9558 353.3097  1.00271130 86148"
      },
      "geometry": {
        "type": "Point",
        "coordinates": [
          68.83109025520244,
          -0.6578486025823723
        ]
      }
    },
    {
      "type": "Feature",
      "properties": {
        "norad_id": 27438,
        "name": "INTELSAT 905 (IS-905)",
        "group": "intelsat",
        "lat": -3.1408112619915225,
        "lon": 41.89505023351027,
        "alt_km": 35796.502014339014,
        "timestamp": "2025-12-02T07:10:08.776945+00:00",
        "meta_object_name": "INTELSAT 905 (IS-905)",
        "meta_object_id": "2002-027A",
        "meta_epoch": "2025-12-01T11:26:53.712384",
        "meta_mean_motion": 1.00272635,
        "meta_eccentricity": 0.00030034,
        "meta_inclination": 6.255,
        "meta_ra_of_asc_node": 72.1839,
        "meta_arg_of_pericenter": 185.4215,
        "meta_mean_anomaly": 207.5171,
        "meta_ephemeris_type": 0,
        "meta_classification_type": "U",
        "meta_norad_cat_id": 27438,
        "meta_element_set_no": 999,
        "meta_rev_at_epoch": 4938,
        "meta_bstar": 0,
        "meta_mean_motion_dot": 1.14e-06,
        "meta_mean_motion_ddot": 0,
        "tle_line1": "1 27438U 02027A   25335.47701056  .00000114  00000+0  00000+0 0  9997",
        "tle_line2": "2 27438   6.2550  72.1839 0003003 185.4215 207.5171  1.00272635 49389"
      },
      "geometry": {
        "type": "Point",
        "coordinates": [
          41.89505023351027,
          -3.1408112619915225
        ]
      }
    },
    {
      "type": "Feature",
      "properties": {
        "norad_id": 27445,
        "name": "GALAXY 3C (G-3C)",
        "group": "intelsat",
        "lat": 0.21368734416080462,
        "lon": 84.04025603661393,
        "alt_km": 35786.53144363071,
        "timestamp": "2025-12-02T07:10:08.776958+00:00",
        "meta_object_name": "GALAXY 3C (G-3C)",
        "meta_object_id": "2002-030A",
        "meta_epoch": "2025-12-01T11:39:00.052992",
        "meta_mean_motion": 1.00270576,
        "meta_eccentricity": 0.00013263,
        "meta_inclination": 3.2337,
        "meta_ra_of_asc_node": 80.6211,
        "meta_arg_of_pericenter": 94.2769,
        "meta_mean_anomaly": 335.604,
        "meta_ephemeris_type": 0,
        "meta_classification_type": "U",
        "meta_norad_cat_id": 27445,
        "meta_element_set_no": 999,
        "meta_rev_at_epoch": 4451,
        "meta_bstar": 0,
        "meta_mean_motion_dot": -1.31e-06,
        "meta_mean_motion_ddot": 0,
        "tle_line1": "1 27445U 02030A   25335.48541728 -.00000131  00000+0  00000+0 0  9998",
        "tle_line2": "2 27445   3.2337  80.6211 0001326  94.2769 335.6040  1.00270576 44512"
      },
      "geometry": {
        "type": "Point",
        "coordinates": [
          84.04025603661393,
          0.21368734416080462
        ]
      }
    },
    {
      "type": "Feature",
      "properties": {
        "norad_id": 27513,
        "name": "INTELSAT 906 (IS-906)",
        "group": "intelsat",
        "lat": 1.106742998843524,
        "lon": -116.92394817156837,
        "alt_km": 35761.82642896022,
        "timestamp": "2025-12-02T07:10:08.776971+00:00",
        "meta_object_name": "INTELSAT 906 (IS-906)",
        "meta_object_id": "2002-041A",
        "meta_epoch": "2025-12-01T19:15:20.505888",
        "meta_mean_motion": 1.00272855,
        "meta_eccentricity": 0.0006106,
        "meta_inclination": 5.3014,
        "meta_ra_of_asc_node": 75.3609,
        "meta_arg_of_pericenter": 190.8107,
        "meta_mean_anomaly": 157.7085,
        "meta_ephemeris_type": 0,
        "meta_classification_type": "U",
        "meta_norad_cat_id": 27513,
        "meta_element_set_no": 999,
        "meta_rev_at_epoch": 8504,
        "meta_bstar": 0,
        "meta_mean_motion_dot": 3.3e-07,
        "meta_mean_motion_ddot": 0,
        "tle_line1": "1 27513U 02041A   25335.80232067  .00000033  00000+0  00000+0 0  9995",
        "tle_line2": "2 27513   5.3014  75.3609 0006106 190.8107 157.7085  1.00272855 85042"
      },
      "geometry": {
        "type": "Point",
        "coordinates": [
          -116.92394817156837,
          1.106742998843524
        ]
      }
    }
  ]
}